[{"OBJECT_ID":"2011-054A","OBJECT_NAME":"QUETZSAT 1","NORAD_CAT_ID":"37826","OBJECT_TYPE":"PAYLOAD","PERIOD":"1436.053","INCLINATION":"0.0628","APOGEE":"35796.240","PERIGEE":"35775.267","ECCENTRICITY":"0.0002487","MEAN_MOTION":"1.00274792","TLE_LINE1":"1 37826U 11054A   16239.27414123 -.00000270  00000-0  00000+0 0  9991","TLE_LINE2":"2 37826   0.0628 291.1711 0002487 227.1172 198.3392  1.00274792 18184","LAUNCH_DATE":"2011-09-29","LAUNCH_SITE":"TYURATAM MISSILE AND SPACE COMPLEX","OWNER":"MEXICO","ORBIT_TYPE":"Geosynchronous","OPERATIONAL_STATUS":"Operational","satInfo":{"lng":-93.0668407452577,"lat":1.7171242713794423,"elevation":-6.889014088640015,"azimuth":48.066840745257686,"range":42471.88222935028,"height":35806.03716256463,"velocity":3.073721747626259},"x":-259,"y":12,"dx":-0.16444691879930015,"dy":-3.069319565103647,"maxAlt":256,"minAlt":256},{"OBJECT_ID":"2011-056A","OBJECT_NAME":"INTELSAT 18","NORAD_CAT_ID":"37834","OBJECT_TYPE":"PAYLOAD","PERIOD":"1436.119","INCLINATION":"0.0196","APOGEE":"35794.352","PERIGEE":"35779.729","ECCENTRICITY":"0.0001734","MEAN_MOTION":"1.00270201","TLE_LINE1":"1 37834U 11056A   16239.54617060  .00000023  00000-0  00000+0 0  9992","TLE_LINE2":"2 37834   0.0196 128.4242 0001734  40.8872 182.5128  1.00270201 17930","LAUNCH_DATE":"2011-10-05","LAUNCH_SITE":"TYURATAM MISSILE AND SPACE COMPLEX","OWNER":"INTERNATIONAL TELECOMMUNICATIONS SATELLITE ORGANIZATION (INTELSAT)","ORBIT_TYPE":"Geosynchronous","OPERATIONAL_STATUS":"Operational","satInfo":{"lng":22.239184944072363,"lat":1.365261213021497,"elevation":-7.243227263417514,"azimuth":292.76081505592765,"range":42465.64041649902,"height":35760.57191879444,"velocity":3.075870610134918},"x":96,"y":-240,"dx":2.8470626260334413,"dy":1.1641367676245424,"maxAlt":256,"minAlt":256},{"OBJECT_ID":"2012-002C","OBJECT_NAME":"FENGYUN 2F AKM","NORAD_CAT_ID":"38072","OBJECT_TYPE":"ROCKET BODY","PERIOD":"1448.717","INCLINATION":"1.0965","APOGEE":"36285.313","PERIGEE":"35781.220","ECCENTRICITY":"0.0059429","MEAN_MOTION":"0.99398268","TLE_LINE1":"1 38072U 12002C   16239.41160662 -.00000197  00000-0  00000+0 0  9999","TLE_LINE2":"2 38072   1.0965  75.2120 0059429 128.1438  92.5013  0.99398268 16614","LAUNCH_DATE":"2012-01-13","LAUNCH_SITE":"Xichang Space Center, China","OWNER":"PEOPLES REPUBLIC OF CHINA","ORBIT_TYPE":"Geosynchronous","OPERATIONAL_STATUS":"N/A, derelict rocket body","satInfo":{"lng":138.15997172001016,"lat":-1.88318350449551,"elevation":-10.394225735163674,"azimuth":176.8400282799898,"range":42920.8503596556,"height":35861.15777887418,"velocity":3.078204468198405},"x":171,"y":191,"dx":-2.293293607558709,"dy":2.0533258819697826,"maxAlt":260,"minAlt":256},{"OBJECT_ID":"2012-007A","OBJECT_NAME":"SES 4","NORAD_CAT_ID":"38087","OBJECT_TYPE":"PAYLOAD","PERIOD":"1436.085","INCLINATION":"0.0189","APOGEE":"35796.472","PERIGEE":"35776.267","ECCENTRICITY":"0.0002396","MEAN_MOTION":"1.00272595","TLE_LINE1":"1 38087U 12007A   16239.38510905 -.00000197  00000-0  00000+0 0  9995","TLE_LINE2":"2 38087   0.0189 353.3740 0002396 168.6947 289.6247  1.00272595 16570","LAUNCH_DATE":"2012-02-14","LAUNCH_SITE":"TYURATAM MISSILE AND SPACE COMPLEX","OWNER":"SOCIÉTÉ EUROPÉENNE DES SATELLITES","ORBIT_TYPE":"Geosynchronous","OPERATIONAL_STATUS":"Operational","satInfo":{"lng":-80.83843864931494,"lat":0.37590134538067504,"elevation":-8.211169247930409,"azimuth":35.83843864931491,"range":42576.995925188254,"height":35763.282958537326,"velocity":3.075319635800301},"x":-256,"y":-42,"dx":0.48964901204050065,"dy":-3.0360887186224743,"maxAlt":256,"minAlt":256},{"OBJECT_ID":"2012-008A","OBJECT_NAME":"BEIDOU G5","NORAD_CAT_ID":"38091","OBJECT_TYPE":"PAYLOAD","PERIOD":"1436.096","INCLINATION":"1.7378","APOGEE":"35798.963","PERIGEE":"35774.196","ECCENTRICITY":"0.0002937","MEAN_MOTION":"1.00271845","TLE_LINE1":"1 38091U 12008A   16239.11875233  .00000029  00000-0  00000+0 0  9993","TLE_LINE2":"2 38091   1.7378  50.0749 0002937 172.6257 213.4979  1.00271845 16566","LAUNCH_DATE":"2012-02-24","LAUNCH_SITE":"Xichang Space Center, China","OWNER":"PEOPLES REPUBLIC OF CHINA","ORBIT_TYPE":"Geosynchronous","OPERATIONAL_STATUS":"Operational","satInfo":{"lng":91.65493199460228,"lat":-0.8048908392094569,"elevation":-9.361818570437688,"azimuth":223.34506800539774,"range":42716.64656879423,"height":35773.71219604242,"velocity":3.075613281151767},"x":256,"y":6,"dx":-0.08882369960987006,"dy":3.0743303995479656,"maxAlt":256,"minAlt":256},{"OBJECT_ID":"2012-012A","OBJECT_NAME":"COSMOS 2479","NORAD_CAT_ID":"38101","OBJECT_TYPE":"PAYLOAD","PERIOD":"1435.318","INCLINATION":"1.0844","APOGEE":"35786.715","PERIGEE":"35755.988","ECCENTRICITY":"0.0003645","MEAN_MOTION":"1.00326192","TLE_LINE1":"1 38101U 12012A   16239.07331050  .00000016  00000-0  00000+0 0  9995","TLE_LINE2":"2 38101   1.0844  61.1857 0003645 189.5743 115.6892  1.00326192 16143","LAUNCH_DATE":"2012-03-30","LAUNCH_SITE":"TYURATAM MISSILE AND SPACE COMPLEX","OWNER":"COMMONWEALTH OF INDEPENDENT STATES","ORBIT_TYPE":"Geosynchronous","OPERATIONAL_STATUS":"Nonoperational","satInfo":{"lng":-125.28234821883729,"lat":-1.7396098855917332,"elevation":-10.275295727983728,"azimuth":80.28234821883727,"range":42801.95847487022,"height":35756.765203011906,"velocity":3.075670128616531},"x":-212,"y":147,"dx":-1.7765260121330306,"dy":-2.5107174409476545,"maxAlt":256,"minAlt":256},{"OBJECT_ID":"2012-012D","OBJECT_NAME":"SL-12 R/B(2)","NORAD_CAT_ID":"38104","OBJECT_TYPE":"ROCKET BODY","PERIOD":"1435.458","INCLINATION":"1.0556","APOGEE":"35831.269","PERIGEE":"35716.935","ECCENTRICITY":"0.0013562","MEAN_MOTION":"1.00316371","TLE_LINE1":"1 38104U 12012D   16238.51774998 +.00000085 +00000-0 +00000-0 0  9995","TLE_LINE2":"2 38104 001.0556 060.8260 0013562 222.0632 068.5336 01.00316371016135","LAUNCH_DATE":"2012-03-30","LAUNCH_SITE":"TYURATAM MISSILE AND SPACE COMPLEX","OWNER":"COMMONWEALTH OF INDEPENDENT STATES","ORBIT_TYPE":"Geosynchronous","OPERATIONAL_STATUS":"N/A, derelict rocket body","satInfo":{"lng":26.41212448534655,"lat":2.684817304283824,"elevation":-5.9382641015410025,"azimuth":288.58787551465343,"range":42366.35449354119,"height":35807.1364176643,"velocity":3.0724086559849666},"x":113,"y":-232,"dx":2.7517034201946267,"dy":1.366683297864045,"maxAlt":257,"minAlt":256},{"OBJECT_ID":"2012-023C","OBJECT_NAME":"ARIANE 5 R/B","NORAD_CAT_ID":"38333","OBJECT_TYPE":"ROCKET BODY","PERIOD":"607.246","INCLINATION":"1.6191","APOGEE":"34499.620","PERIGEE":"252.096","ECCENTRICITY":"0.7208793","MEAN_MOTION":"2.3713618","TLE_LINE1":"1 38333U 12023C   16238.69428862 +.00003248 +00000-0 +10000-2 0  9993","TLE_LINE2":"2 38333 001.6191 097.6806 7208793 053.7329 353.2781 02.37136180036426","LAUNCH_DATE":"2012-05-15","LAUNCH_SITE":"FRENCH GUIANA","OWNER":"FRANCE","ORBIT_TYPE":"Highly Elliptical Orbit","OPERATIONAL_STATUS":"N/A, derelict rocket body","satInfo":{"lng":-78.0133139729885,"lat":3.1326286366450455,"elevation":-12.144664793865791,"azimuth":33.0133139729885,"range":24099.336666677802,"height":17217.039567853557,"velocity":4.0751072822610075},"x":-123,"y":-27,"dx":0.8463361719004308,"dy":-3.9862531838895556,"maxAlt":247,"minAlt":0},{"OBJECT_ID":"2012-023D","OBJECT_NAME":"ARIANE 5 DEB (SYLDA)","NORAD_CAT_ID":"38334","OBJECT_TYPE":"DEBRIS","PERIOD":"426.178","INCLINATION":"1.5583","APOGEE":"24507.894","PERIGEE":"254.813","ECCENTRICITY":"0.6464217","MEAN_MOTION":"3.37886831","TLE_LINE1":"1 38334U 12023D   16239.45620165  .00023089  00000-0  38174-2 0  9996","TLE_LINE2":"2 38334   1.5583 277.4078 6464217  54.0688 349.8885  3.37886831 44102","LAUNCH_DATE":"2012-05-15","LAUNCH_SITE":"FRENCH GUIANA","OWNER":"FRANCE","ORBIT_TYPE":"Highly Elliptical Orbit","OPERATIONAL_STATUS":"N/A, space debris","satInfo":{"lng":-6.653681204908298,"lat":-0.04364929235900186,"elevation":-13.417632094891909,"azimuth":321.6536812049083,"range":27483.436034716135,"height":20355.133049846372,"velocity":2.476361651296769},"x":-18,"y":-147,"dx":2.4596824725591295,"dy":-0.2869305877711004,"maxAlt":175,"minAlt":0},{"OBJECT_ID":"2012-030B","OBJECT_NAME":"BLOCK DM-SL R/B","NORAD_CAT_ID":"38357","OBJECT_TYPE":"ROCKET BODY","PERIOD":"639.048","INCLINATION":"0.6873","APOGEE":"35632.758","PERIGEE":"763.527","ECCENTRICITY":"0.7094083","MEAN_MOTION":"2.25334974","TLE_LINE1":"1 38357U 12030B   16238.58063311 -.00000034  00000-0  00000+0 0  9996","TLE_LINE2":"2 38357   0.6873 340.1994 7094083 197.8834 110.7311  2.25334974728384","LAUNCH_DATE":"2012-06-01","LAUNCH_SITE":"SEA LAUNCH","OWNER":"SEA LAUNCH DEMO","ORBIT_TYPE":"Highly Elliptical Orbit","OPERATIONAL_STATUS":"N/A, derelict rocket body","satInfo":{"lng":-105.56791277138753,"lat":0.003207855340350953,"elevation":-10.398860415133145,"azimuth":60.5679127713875,"range":35208.86715969097,"height":28252.426720509422,"velocity":2.607876972057183},"x":-197,"y":53,"dx":-0.6999030145057233,"dy":-2.5122018373673605,"maxAlt":255,"minAlt":4},{"OBJECT_ID":"2012-035B","OBJECT_NAME":"METEOSAT 10 (MSG 3)","NORAD_CAT_ID":"38552","OBJECT_TYPE":"PAYLOAD","PERIOD":"1436.053","INCLINATION":"0.5199","APOGEE":"35795.696","PERIGEE":"35775.778","ECCENTRICITY":"0.0002362","MEAN_MOTION":"1.0027485","TLE_LINE1":"1 38552U 12035B   16239.06984174 -.00000031  00000-0  00000+0 0  9998","TLE_LINE2":"2 38552   0.5199  17.2110 0002362 198.6794 144.0876  1.00274850 15304","LAUNCH_DATE":"2012-07-05","LAUNCH_SITE":"FRENCH GUIANA","OWNER":"EUROPEAN ORGANIZATION FOR THE EXPLOITATION OF METEOROLOGICAL SATELLITES","ORBIT_TYPE":"Geosynchronous","OPERATIONAL_STATUS":"Operational","satInfo":{"lng":13.556487487967567,"lat":0.5584914338259217,"elevation":-8.025577427542355,"azimuth":301.4435125120325,"range":42591.577664901844,"height":35798.29364600184,"velocity":3.074286745818583},"x":59,"y":-252,"dx":2.9886349521739772,"dy":0.7206248109521773,"maxAlt":256,"minAlt":256}]